[{"OBJECT_NAME":"FORTE","OBJECT_ID":"1997-047A","EPOCH":"2026-03-09T21:41:12.798240","MEAN_MOTION":14.27898785,"ECCENTRICITY":0.00196357,"INCLINATION":69.9517,"RA_OF_ASC_NODE":238.2652,"ARG_OF_PERICENTER":49.0734,"MEAN_ANOMALY":311.2084,"EPHEMERIS_TYPE":0,"CLASSIFICATION_TYPE":"U","NORAD_CAT_ID":24920,"ELEMENT_SET_NO":999,"REV_AT_EPOCH":48451,"BSTAR":0.0001374801,"MEAN_MOTION_DOT":2.83e-6,"MEAN_MOTION_DDOT":0},{"OBJECT_NAME":"CZ-4B DEB","OBJECT_ID":"2013-057C","EPOCH":"2026-03-09T09:32:06.535968","MEAN_MOTION":14.59124108,"ECCENTRICITY":0.01737289,"INCLINATION":75.0488,"RA_OF_ASC_NODE":75.5028,"ARG_OF_PERICENTER":23.1031,"MEAN_ANOMALY":337.7829,"EPHEMERIS_TYPE":0,"CLASSIFICATION_TYPE":"U","NORAD_CAT_ID":40530,"ELEMENT_SET_NO":999,"REV_AT_EPOCH":57781,"BSTAR":0.0012357607,"MEAN_MOTION_DOT":7.166e-5,"MEAN_MOTION_DDOT":0}]
